0 IRIDIUM 33 DEB
1 34490U 97051GF  13282.51657521  .00013165  00000-0  40645-2 0  8176
2 34490 086.3358 122.6057 0056513 340.3600 047.6049 14.40343905242252
0 IRIDIUM 33 DEB
1 34490U 97051GF  13283.48798166  .00012832  00000-0  39608-2 0  8182
2 34490 086.3358 122.1889 0056361 337.2136 044.5453 14.40359126242392
0 IRIDIUM 33 DEB
1 34490U 97051GF  13286.34240396  .00009807  00000-0  30249-2 0  8200
2 34490 086.3352 120.9634 0056004 327.8116 085.8061 14.40405858242800
0 IRIDIUM 33 DEB
1 34490U 97051GF  13288.48947355  .00017064  00000-0  52570-2 0  8212
2 34490 086.3345 120.0415 0055745 320.7034 059.5818 14.40460767243115
0 IRIDIUM 33 DEB
1 34490U 97051GF  13289.76063586  .00016972  00000-0  52263-2 0  8226
2 34490 086.3341 119.4954 0055594 316.5399 171.4530 14.40488228243296
0 IRIDIUM 33 DEB
1 34490U 97051GF  13291.08391844  .00012832  00000-0  39500-2 0  8236
2 34490 086.3339 118.9271 0055480 312.0748 193.8650 14.40521259243486
0 IRIDIUM 33 DEB
1 34490U 97051GF  13293.49994207  .00014081  00000-0  43303-2 0  8240
2 34490 086.3340 117.8892 0055307 304.0407 123.3881 14.40573516243832
0 IRIDIUM 33 DEB
1 34490U 97051GF  13295.51118927  .00016812  00000-0  51646-2 0  8256
2 34490 086.3344 117.0253 0055168 297.2297 114.2181 14.40619767244128
